IRIDIUM 150             
1 43257U 18030J   25018.88439150 -.00000173  00000+0 -68959-4 0  9990
2 43257  86.4013 145.4755 0002144 101.2354 258.9083 14.34217411356448
IRIDIUM 143             
1 43258U 18030K   25018.86536325  .00000102  00000+0  29508-4 0  9998
2 43258  86.4015 145.5561 0002382 105.3339 254.8120 14.34218924356378
IRIDIUM 161             
1 43478U 18047C   25018.87286747  .00000851  00000+0  24698-3 0  9996
2 43478  86.4504 303.3941 0002203  80.8307 279.3143 14.43280614350955
IRIDIUM 152             
1 43479U 18047D   25018.83807434  .00000666  00000+0  23061-3 0  9992
2 43479  86.3979 303.2683 0002077  84.7819 275.3614 14.34222820348763
IRIDIUM 147             
1 43480U 18047E   25018.28626331  .00000614  00000+0  21206-3 0  9990
2 43480  86.3980 303.4948 0002086  74.5843 285.5583 14.34224876348689
IRIDIUM 110             
1 43481U 18047F   25018.85076550  .00000742  00000+0  25800-3 0  9992
2 43481  86.3982 303.3375 0001769  78.6766 281.4628 14.34218872348753
IRIDIUM 162             
1 43482U 18047G   25018.86653805  .00000863  00000+0  25053-3 0  9992
2 43482  86.4502 303.2938 0001937  86.0004 274.1418 14.43285857350949
IRIDIUM 160             
1 43569U 18061A   25018.23844990  .00000528  00000+0  18154-3 0  9994
2 43569  86.3956 271.9514 0001972  78.9691 281.1726 14.34222462339567
